00136    9.76  0.15 K2555 123.60192  133.22511  186.36390    9.57694  0.0845770  0.28483315   2.2877524  0 E2025-HJ5  6844  61 1877-2025 0.62 M-v 3Ek MPCLINUX   0000    (136) Austria            20250407
00137    8.35  0.15 K2555  71.30066  107.74978  202.16792   13.42997  0.2109877  0.17850018   3.1239946  0 MPO901162  9538  63 1880-2025 0.55 M-v 3Ek MPCLINUX   0000    (137) Meliboea           20250210
00138    9.02  0.15 K2555  91.22316  260.83306   54.72186    3.20150  0.1617394  0.25702545   2.4499203  0 E2025-HJ5 10269  64 1897-2025 0.49 M-v 3Ek MPCLINUX   0000    (138) Tolosa             20250301
00139    8.05  0.15 K2555  17.56543  167.27872    1.67162   10.87201  0.1701350  0.21204793   2.7851378  0 E2025-L08  8475  71 1881-2025 0.50 M-v 3Ek MPCLINUX   0000    (139) Juewa              20250601
00140    8.45  0.15 K2555 177.65937  197.15030  107.07401    3.19101  0.2173238  0.21826545   2.7319918  0 E2025-K50  6294  63 1877-2025 0.71 M-v 3Ek MPCLINUX   0000    (140) Siwa               20250521
00141    8.38  0.15 K2555 297.36470   57.87406  318.43882   11.89499  0.2131070  0.22630636   2.6668886  0 E2025-L08  3757  60 1877-2025 0.74 M-v 3Ek MPCLINUX   0000    (141) Lumen              20250602
00142   10.54  0.15 K2555 258.96625  292.44536  291.05781    2.24229  0.1328386  0.26176831   2.4202376  0 E2025-J44 11389  57 1880-2025 0.48 M-v 3Ek MPCLINUX   0000    (142) Polana             20250425
00143    9.33  0.15 K2555 194.25508  251.92474  332.93453   11.44162  0.0723641  0.21472782   2.7619163  0 E2025-HJ5 10283  52 1880-2025 0.49 M-v 3Ek MPCLINUX   0000    (143) Adria              20250301
00144    8.07  0.15 K2555 148.91831  294.44807   76.16224    4.81608  0.2357376  0.22806293   2.6531771  0 E2025-KC9  4430  71 1875-2025 0.76 M-v 3Ek MPCLINUX   0000    (144) Vibilia            20250528
00145    8.42  0.15 K2555 234.15012   45.24988   77.32203   12.62161  0.1473685  0.22577719   2.6710540  0 E2025-KC9 10567  63 1875-2025 0.47 M-v 3Ek MPCLINUX   0000    (145) Adeona             20250528
00146    8.51  0.15 K2555 183.66822  145.24000   83.92817   13.10011  0.0654177  0.21988039   2.7185984  0 E2025-HJ5 10733  71 1885-2025 0.47 M-v 3Ek MPCLINUX   0000    (146) Lucina             20250218
00147    8.74  0.15 K2555 297.83710  103.43887  248.20786    1.93293  0.0221896  0.17733161   3.1377038  0 E2025-L08  5787  71 1875-2025 0.71 M-v 3Ek MPCLINUX   0000    (147) Protogeneia        20250601
00148    7.60  0.15 K2555 114.63922  252.41048  144.95603   25.29077  0.1880411  0.21380459   2.7698613  0 E2025-L08  4686  79 1879-2025 0.77 M-v 3Ek MPCLINUX   0000    (148) Gallia             20250601
00149   10.54  0.15 K2555 184.10224  250.59285  159.61282    0.94014  0.0649864  0.30730475   2.1748194  0 E2025-L08  4982  58 1891-2025 0.71 M-v 3Ek MPCLINUX   0000    (149) Medusa             20250601
00150    8.58  0.15 K2555  27.13353  154.22614  206.10507    2.20229  0.1235829  0.19132480   2.9827844  0 MPO901163 10248  72 1880-2025 0.55 M-v 3Ek MPCLINUX   0000    (150) Nuwa               20250121
00151    9.35  0.15 K2555 176.35358  132.29059   38.72716    6.43150  0.0359891  0.23629420   2.5911985  0 E2025-KC9  8744  53 1885-2025 0.53 M-v 3Ek MPCLINUX   0000    (151) Abundantia         20250528
00152    8.38  0.15 K2555 260.27699   59.10275   39.86522   12.12416  0.0826093  0.17742167   3.1366419  0 E2025-KC9 10304  61 1880-2025 0.47 M-v 3Ek MPCLINUX   0000    (152) Atala              20250528
00153    7.75  0.15 K2555  88.67426   39.23528  228.08237    7.83010  0.1386152  0.12461812   3.9696168  0 E2025-HJ5 10906  74 1880-2025 0.50 M-v 3Ek MPCLINUX   0008    (153) Hilda              20250119
00154    7.66  0.15 K2555 308.16011  167.86676   36.47916   21.02200  0.0769701  0.17272246   3.1932788  0 E2025-KE2  5109  68 1880-2025 0.66 M-v 3Ek MPCLINUX   0000    (154) Bertha             20250529
00155   11.16  0.15 K2555 201.02145   46.81536   40.53856   11.35950  0.2727706  0.21479395   2.7613494  0 E2025-L08  3973  36 1875-2025 0.70 M-v 3Ek MPCLINUX   0000    (155) Scylla             20250601
00156    8.81  0.15 K2555 242.29674  338.63555  241.77153    9.77357  0.2224225  0.21784640   2.7354941  0 MPO901163 10917  64 1901-2025 0.49 M-v 3Ek MPCLINUX   0000    (156) Xanthippe          20250311
00157   11.19  0.15 K2555 353.11000   46.09630   62.03321   12.16129  0.1981949  0.23775828   2.5805500  0 E2025-GB7  4484  45 1904-2025 0.67 M-v 3Ek MPCLINUX   0000    (157) Dejanira           20250409
00158    9.36  0.15 K2555 299.32916  147.48290  277.64556    1.00574  0.0532863  0.20296110   2.8676591  0 MPO887289  8961  59 1893-2024 0.57 M-v 3Ek MPCLINUX   0000    (158) Koronis            20241214
00159    8.29  0.15 K2555  70.03007  333.58254  133.86054    6.11446  0.0993994  0.17993382   3.1073787  0 E2025-L08  5157  69 1904-2025 0.73 M-v 3Ek MPCLINUX   0000    (159) Aemilia            20250601
00160    9.07  0.15 K2555 127.49953   50.04992    8.54516    3.81923  0.0657692  0.21884114   2.7271984  0 E2025-L08  5031  69 1876-2025 0.73 M-v 3Ek MPCLINUX   0000    (160) Una                20250601
00161    9.31  0.15 K2555 127.75939  295.29302   18.50029    9.05079  0.1370711  0.26827699   2.3809326  0 E2025-GB7  9247  55 1876-2025 0.52 M-v 3Ek MPCLINUX   0000    (161) Athor              20250409
00162    9.12  0.15 K2555 182.74156  115.61216   35.42821    6.09140  0.1827837  0.18828016   3.0148544  0 E2025-L08  9021  65 1876-2025 0.52 M-v 3Ek MPCLINUX   0000    (162) Laurentia          20250601
00163    9.78  0.15 K2555  66.16216  298.38992  160.01255    4.81528  0.1920246  0.27076702   2.3663131  0 E2025-L08  6460  59 1892-2025 0.67 M-v 3Ek MPCLINUX   0000    (163) Erigone            20250601
00164    8.78  0.15 K2555 238.28693  284.03654   76.77985   24.47547  0.3464372  0.23076637   2.6324151  0 E2025-L08  5834  50 1893-2025 0.60 M-v 3Ek MPCLINUX   0000    (164) Eva                20250601
00165    7.81  0.15 K2555 339.53840  344.54647  302.42837   11.23313  0.0835746  0.17824436   3.1269829  0 E2025-L08  5450  74 1876-2025 0.72 M-v 3Ek MPCLINUX   0000    (165) Loreley            20250601
00166    9.87  0.15 K2555 232.08339  264.14849  128.87418   12.02207  0.2103687  0.22375468   2.6871256  0 E2025-L08  5026  47 1876-2025 0.70 M-v 3Ek MPCLINUX   0000    (166) Rhodope            20250601
00167    9.39  0.15 K2555 337.69967  127.31640  166.09622    2.21727  0.0371314  0.20442654   2.8539380  0 E2025-L03  9439  57 1884-2025 0.52 M-v 3Ek MPCLINUX   0000    (167) Urda               20250601
00168    8.29  0.15 K2555 317.53867  176.59684  205.90903    4.67083  0.0746043  0.15912523   3.3726921  0 E2025-KC9 12014  81 1876-2025 0.49 M-v 3Ek MPCLINUX   0000    (168) Sibylla            20250528
00169    9.55  0.15 K2555  40.65771  334.82917  354.71737    5.50031  0.1300916  0.27220133   2.3579933  0 E2025-HJ5  5691  55 1876-2024 0.65 M-v 3Ek MPCLINUX   0000    (169) Zelia              20241209
00170    9.34  0.15 K2555 141.48774  158.71855  301.18276   14.36144  0.0613805  0.24140397   2.5545031  0 E2025-L08  7071  55 1877-2025 0.52 M-v 3Ek MPCLINUX   0000    (170) Maria              20250601
00171    8.64  0.15 K2555 222.22228   55.33231  100.46973    2.54702  0.1326552  0.17815720   3.1280028  0 E2025-HJ5 11240  73 1877-2024 0.48 M-v 3Ek MPCLINUX   0000    (171) Ophelia            20241228
00172    8.71  0.15 K2555 314.60480  359.20037  331.89123   10.01529  0.1142571  0.26842796   2.3800398  0 E2025-L08  3645  69 1882-2025 0.77 M-v 3Ek MPCLINUX   0000    (172) Baucis             20250602
00173    7.94  0.15 K2555 151.93546  228.57032  148.12726   14.19579  0.2096775  0.21715519   2.7412958  0 E2025-L08  4867  79 1879-2025 0.70 M-v 3Ek MPCLINUX   0000    (173) Ino                20250601
00174    8.40  0.15 K2555 260.43902  290.98217  327.26488   12.10432  0.1452733  0.20394406   2.8584374  0 E2025-KB8  8606  62 1877-2025 0.53 M-v 3Ek MPCLINUX   0000    (174) Phaedra            20250527
00175    8.62  0.15 K2555 231.56804  319.70967   21.28613    3.21813  0.2316410  0.17330423   3.1861284  0 E2025-L08  7274  76 1877-2025 0.60 M-v 3Ek MPCLINUX   0000    (175) Andromache         20250601
00176    8.45  0.15 K2555   0.10929  188.94474  200.46166   22.68083  0.1719254  0.17390258   3.1788159  0 E2025-HJ5 10196  63 1877-2025 0.55 M-v 3Ek MPCLINUX   0000    (176) Iduna              20250203
00177    9.63  0.15 K2555   4.51335   39.70155  346.92598    1.38150  0.2342318  0.21374266   2.7703963  0 E2025-HJ5  4930  56 1900-2024 0.74 M-v 3Ek MPCLINUX   0000    (177) Irma               20241228
00178    9.50  0.15 K2555 215.37861  214.02665   51.05896    1.89075  0.0421744  0.25528131   2.4610666  0 E2025-J91 10295  65 1885-2025 0.52 M-v 3Ek MPCLINUX   0000    (178) Belisana           20250514
00179    8.27  0.15 K2555 333.26643  104.46651  251.82504    7.81734  0.1094493  0.19223453   2.9733665  0 E2025-L08  9095  69 1880-2025 0.52 M-v 3Ek MPCLINUX   0000    (179) Klytaemnestra      20250601
00180   10.32  0.15 K2555 284.54489  175.88611  311.81802    0.86794  0.1684457  0.21966155   2.7204037  0 MPO901163 10931  57 1890-2025 0.47 M-v 3Ek MPCLINUX   0000    (180) Garumna            20250121
00181    8.08  0.15 K2555 242.96275  318.91453  142.98251   18.89939  0.2083255  0.17848380   3.1241858  0 E2025-L08 10554  65 1880-2025 0.49 M-v 3Ek MPCLINUX   0000    (181) Eucharis           20250601
00182    9.11  0.15 K2555 139.93057  310.55611  107.16406    2.00556  0.1866671  0.26249530   2.4157669  0 E2025-L08  4387  63 1904-2025 0.75 M-v 3Ek MPCLINUX   0000    (182) Elsa               20250601
00183    9.48  0.15 K2555 250.48280  264.10693  141.83282   26.39154  0.3482495  0.21088586   2.7953599  0 E2025-L08  4991  47 1889-2025 0.60 M-v 3Ek MPCLINUX   0000    (183) Istria             20250601
00184    8.38  0.15 K2555 305.37805  217.99005  330.14844    1.12965  0.0591609  0.17282481   3.1920180  0 E2025-K84  5317  70 1892-2025 0.74 M-v 3Ek MPCLINUX   0000    (184) Dejopeja           20250524
